[{"OBJECT_NAME":"STARLINK-37223","OBJECT_ID":"2026-063H","EPOCH":"2026-04-16T07:19:07.765536","MEAN_MOTION":15.80849852,"ECCENTRICITY":0.00015491,"INCLINATION":97.2837,"RA_OF_ASC_NODE":247.952,"ARG_OF_PERICENTER":52.3912,"MEAN_ANOMALY":307.7497,"EPHEMERIS_TYPE":0,"CLASSIFICATION_TYPE":"U","NORAD_CAT_ID":68387,"ELEMENT_SET_NO":999,"REV_AT_EPOCH":356,"BSTAR":0.00049402504,"MEAN_MOTION_DOT":0.0009568,"MEAN_MOTION_DDOT":0},{"OBJECT_NAME":"STARLINK-37203","OBJECT_ID":"2026-063J","EPOCH":"2026-04-16T07:18:02.880864","MEAN_MOTION":15.80864873,"ECCENTRICITY":0.00015011,"INCLINATION":97.2837,"RA_OF_ASC_NODE":247.9531,"ARG_OF_PERICENTER":52.5719,"MEAN_ANOMALY":307.5685,"EPHEMERIS_TYPE":0,"CLASSIFICATION_TYPE":"U","NORAD_CAT_ID":68388,"ELEMENT_SET_NO":999,"REV_AT_EPOCH":356,"BSTAR":0.00071702962,"MEAN_MOTION_DOT":0.00139737,"MEAN_MOTION_DDOT":0},{"OBJECT_NAME":"STARLINK-37197","OBJECT_ID":"2026-063K","EPOCH":"2026-04-16T06:22:10.571232","MEAN_MOTION":15.75229365,"ECCENTRICITY":0.00013196,"INCLINATION":97.2847,"RA_OF_ASC_NODE":247.8525,"ARG_OF_PERICENTER":61.5174,"MEAN_ANOMALY":298.6224,"EPHEMERIS_TYPE":0,"CLASSIFICATION_TYPE":"U","NORAD_CAT_ID":68389,"ELEMENT_SET_NO":999,"REV_AT_EPOCH":355,"BSTAR":0.00088193893,"MEAN_MOTION_DOT":0.00133723,"MEAN_MOTION_DDOT":0},{"OBJECT_NAME":"STARLINK-37193","OBJECT_ID":"2026-063L","EPOCH":"2026-04-16T06:00:02.000160","MEAN_MOTION":15.7518056,"ECCENTRICITY":0.00014739,"INCLINATION":97.2844,"RA_OF_ASC_NODE":248.1242,"ARG_OF_PERICENTER":88.9325,"MEAN_ANOMALY":138.0056,"EPHEMERIS_TYPE":0,"CLASSIFICATION_TYPE":"U","NORAD_CAT_ID":68390,"ELEMENT_SET_NO":999,"REV_AT_EPOCH":283,"BSTAR":-0.00018047439,"MEAN_MOTION_DOT":-0.00026953,"MEAN_MOTION_DDOT":0},{"OBJECT_NAME":"STARLINK-37216","OBJECT_ID":"2026-063M","EPOCH":"2026-04-16T06:00:02.000160","MEAN_MOTION":15.76717271,"ECCENTRICITY":0.00018841,"INCLINATION":97.2846,"RA_OF_ASC_NODE":247.8996,"ARG_OF_PERICENTER":75.5874,"MEAN_ANOMALY":342.3238,"EPHEMERIS_TYPE":0,"CLASSIFICATION_TYPE":"U","NORAD_CAT_ID":68391,"ELEMENT_SET_NO":999,"REV_AT_EPOCH":450,"BSTAR":-0.012432804,"MEAN_MOTION_DOT":-0.01749234,"MEAN_MOTION_DDOT":0},{"OBJECT_NAME":"STARLINK-37215","OBJECT_ID":"2026-063N","EPOCH":"2026-04-16T05:42:34.026912","MEAN_MOTION":15.80845027,"ECCENTRICITY":0.00012529,"INCLINATION":97.2837,"RA_OF_ASC_NODE":247.8908,"ARG_OF_PERICENTER":102.2401,"MEAN_ANOMALY":257.9008,"EPHEMERIS_TYPE":0,"CLASSIFICATION_TYPE":"U","NORAD_CAT_ID":68392,"ELEMENT_SET_NO":999,"REV_AT_EPOCH":355,"BSTAR":0.00067403602,"MEAN_MOTION_DOT":0.00131098,"MEAN_MOTION_DDOT":0},{"OBJECT_NAME":"STARLINK-37184","OBJECT_ID":"2026-063P","EPOCH":"2026-04-16T05:41:28.915008","MEAN_MOTION":15.80856829,"ECCENTRICITY":0.00014092,"INCLINATION":97.2835,"RA_OF_ASC_NODE":247.8919,"ARG_OF_PERICENTER":48.8625,"MEAN_ANOMALY":311.2765,"EPHEMERIS_TYPE":0,"CLASSIFICATION_TYPE":"U","NORAD_CAT_ID":68393,"ELEMENT_SET_NO":999,"REV_AT_EPOCH":355,"BSTAR":0.00079055373,"MEAN_MOTION_DOT":0.00154281,"MEAN_MOTION_DDOT":0},{"OBJECT_NAME":"STARLINK-37157","OBJECT_ID":"2026-063Q","EPOCH":"2026-04-16T06:10:59.918016","MEAN_MOTION":15.75211736,"ECCENTRICITY":0.00013777,"INCLINATION":97.2854,"RA_OF_ASC_NODE":247.8628,"ARG_OF_PERICENTER":82.2924,"MEAN_ANOMALY":277.8498,"EPHEMERIS_TYPE":0,"CLASSIFICATION_TYPE":"U","NORAD_CAT_ID":68394,"ELEMENT_SET_NO":999,"REV_AT_EPOCH":355,"BSTAR":0.0006686424,"MEAN_MOTION_DOT":0.00100883,"MEAN_MOTION_DDOT":0},{"OBJECT_NAME":"STARLINK-37172","OBJECT_ID":"2026-063R","EPOCH":"2026-04-16T05:59:18.656736","MEAN_MOTION":15.75214177,"ECCENTRICITY":0.00013094,"INCLINATION":97.2851,"RA_OF_ASC_NODE":247.8736,"ARG_OF_PERICENTER":78.3359,"MEAN_ANOMALY":281.8053,"EPHEMERIS_TYPE":0,"CLASSIFICATION_TYPE":"U","NORAD_CAT_ID":68395,"ELEMENT_SET_NO":999,"REV_AT_EPOCH":355,"BSTAR":0.00081695517,"MEAN_MOTION_DOT":0.00123632,"MEAN_MOTION_DDOT":0},{"OBJECT_NAME":"STARLINK-37190","OBJECT_ID":"2026-063S","EPOCH":"2026-04-16T07:10:28.441056","MEAN_MOTION":15.80848023,"ECCENTRICITY":0.00012524,"INCLINATION":97.2836,"RA_OF_ASC_NODE":247.9592,"ARG_OF_PERICENTER":93.4015,"MEAN_ANOMALY":266.7396,"EPHEMERIS_TYPE":0,"CLASSIFICATION_TYPE":"U","NORAD_CAT_ID":68396,"ELEMENT_SET_NO":999,"REV_AT_EPOCH":356,"BSTAR":0.00059974172,"MEAN_MOTION_DOT":0.00116452,"MEAN_MOTION_DDOT":0},{"OBJECT_NAME":"STARLINK-37194","OBJECT_ID":"2026-063T","EPOCH":"2026-04-16T07:08:18.597408","MEAN_MOTION":15.80860602,"ECCENTRICITY":0.00012142,"INCLINATION":97.2837,"RA_OF_ASC_NODE":247.9617,"ARG_OF_PERICENTER":84.4538,"MEAN_ANOMALY":275.6869,"EPHEMERIS_TYPE":0,"CLASSIFICATION_TYPE":"U","NORAD_CAT_ID":68397,"ELEMENT_SET_NO":999,"REV_AT_EPOCH":356,"BSTAR":0.00071880705,"MEAN_MOTION_DOT":0.00140059,"MEAN_MOTION_DDOT":0},{"OBJECT_NAME":"STARLINK-37220","OBJECT_ID":"2026-063U","EPOCH":"2026-04-16T06:00:02.000160","MEAN_MOTION":15.75125117,"ECCENTRICITY":0.00014358,"INCLINATION":97.2847,"RA_OF_ASC_NODE":247.9087,"ARG_OF_PERICENTER":69.2771,"MEAN_ANOMALY":9.7136,"EPHEMERIS_TYPE":0,"CLASSIFICATION_TYPE":"U","NORAD_CAT_ID":68398,"ELEMENT_SET_NO":999,"REV_AT_EPOCH":450,"BSTAR":0.00048641858,"MEAN_MOTION_DOT":0.00072839,"MEAN_MOTION_DDOT":0},{"OBJECT_NAME":"STARLINK-37187","OBJECT_ID":"2026-063V","EPOCH":"2026-04-16T07:07:13.738656","MEAN_MOTION":15.80850904,"ECCENTRICITY":0.00012097,"INCLINATION":97.2836,"RA_OF_ASC_NODE":247.9628,"ARG_OF_PERICENTER":92.7511,"MEAN_ANOMALY":267.3896,"EPHEMERIS_TYPE":0,"CLASSIFICATION_TYPE":"U","NORAD_CAT_ID":68399,"ELEMENT_SET_NO":999,"REV_AT_EPOCH":356,"BSTAR":0.0006842247,"MEAN_MOTION_DOT":0.00133149,"MEAN_MOTION_DDOT":0},{"OBJECT_NAME":"STARLINK-36235","OBJECT_ID":"2026-063W","EPOCH":"2026-04-16T05:33:54.491616","MEAN_MOTION":15.80860071,"ECCENTRICITY":0.00013489,"INCLINATION":97.2836,"RA_OF_ASC_NODE":247.8977,"ARG_OF_PERICENTER":68.2643,"MEAN_ANOMALY":291.8769,"EPHEMERIS_TYPE":0,"CLASSIFICATION_TYPE":"U","NORAD_CAT_ID":68400,"ELEMENT_SET_NO":999,"REV_AT_EPOCH":355,"BSTAR":0.00069130657,"MEAN_MOTION_DOT":0.00134608,"MEAN_MOTION_DDOT":0},{"OBJECT_NAME":"STARLINK-37175","OBJECT_ID":"2026-063X","EPOCH":"2026-04-16T05:53:43.322784","MEAN_MOTION":15.75190041,"ECCENTRICITY":0.00012627,"INCLINATION":97.2849,"RA_OF_ASC_NODE":247.8791,"ARG_OF_PERICENTER":72.5398,"MEAN_ANOMALY":287.6005,"EPHEMERIS_TYPE":0,"CLASSIFICATION_TYPE":"U","NORAD_CAT_ID":68401,"ELEMENT_SET_NO":999,"REV_AT_EPOCH":355,"BSTAR":0.00037418279,"MEAN_MOTION_DOT":0.00056049,"MEAN_MOTION_DDOT":0},{"OBJECT_NAME":"STARLINK-36360","OBJECT_ID":"2026-063Y","EPOCH":"2026-04-16T05:31:44.586624","MEAN_MOTION":15.80895189,"ECCENTRICITY":0.00011906,"INCLINATION":97.2834,"RA_OF_ASC_NODE":247.8998,"ARG_OF_PERICENTER":80.976,"MEAN_ANOMALY":279.1643,"EPHEMERIS_TYPE":0,"CLASSIFICATION_TYPE":"U","NORAD_CAT_ID":68402,"ELEMENT_SET_NO":999,"REV_AT_EPOCH":355,"BSTAR":0.0011550381,"MEAN_MOTION_DOT":0.00227798,"MEAN_MOTION_DDOT":0}]
