STARLINK-37223          
1 68387U 26063H   26106.30495099  .00095680  00000+0  49403-3 0  9993
2 68387  97.2837 247.9520 0001549  52.3912 307.7497 15.80849852  3561
STARLINK-37203          
1 68388U 26063J   26106.30420001  .00139737  00000+0  71703-3 0  9995
2 68388  97.2837 247.9531 0001501  52.5719 307.5685 15.80864873  3566
STARLINK-37197          
1 68389U 26063K   26106.26540013  .00133723  00000+0  88194-3 0  9998
2 68389  97.2847 247.8525 0001319  61.5174 298.6224 15.75229365  3555
STARLINK-37193          
1 68390U 26063L   26106.25002315 -.00026953  00000+0 -18047-3 0  9995
2 68390  97.2844 248.1242 0001473  88.9325 138.0056 15.75180560  2839
STARLINK-37216          
1 68391U 26063M   26106.25002315 -.01749234  00000+0 -12433-1 0  9992
2 68391  97.2846 247.8996 0001884  75.5874 342.3238 15.76717271  4505
STARLINK-37215          
1 68392U 26063N   26106.23789383  .00131098  00000+0  67404-3 0  9998
2 68392  97.2837 247.8908 0001252 102.2401 257.9008 15.80845027  3558
STARLINK-37184          
1 68393U 26063P   26106.23714022  .00154281  00000+0  79055-3 0  9991
2 68393  97.2835 247.8919 0001409  48.8625 311.2765 15.80856829  3552
STARLINK-37157          
1 68394U 26063Q   26106.25763794  .00100883  00000+0  66864-3 0  9997
2 68394  97.2854 247.8628 0001377  82.2924 277.8498 15.75211736  3555
STARLINK-37172          
1 68395U 26063R   26106.24952149  .00123632  00000+0  81696-3 0  9998
2 68395  97.2851 247.8736 0001309  78.3359 281.8053 15.75214177  3550
STARLINK-37190          
1 68396U 26063S   26106.29894029  .00116452  00000+0  59974-3 0  9992
2 68396  97.2836 247.9592 0001252  93.4015 266.7396 15.80848023  3561
STARLINK-37194          
1 68397U 26063T   26106.29743747  .00140059  00000+0  71881-3 0  9994
2 68397  97.2837 247.9617 0001214  84.4538 275.6869 15.80860602  3560
STARLINK-37220          
1 68398U 26063U   26106.25002315  .00072839  00000+0  48642-3 0  9999
2 68398  97.2847 247.9087 0001435  69.2771   9.7136 15.75125117  4505
STARLINK-37187          
1 68399U 26063V   26106.29668679  .00133149  00000+0  68422-3 0  9995
2 68399  97.2836 247.9628 0001209  92.7511 267.3896 15.80850904  3562
STARLINK-36235          
1 68400U 26063W   26106.23188069  .00134608  00000+0  69131-3 0  9991
2 68400  97.2836 247.8977 0001348  68.2643 291.8769 15.80860071  3555
STARLINK-37175          
1 68401U 26063X   26106.24564031  .00056049  00000+0  37418-3 0  9995
2 68401  97.2849 247.8791 0001262  72.5398 287.6005 15.75190041  3557
STARLINK-36360          
1 68402U 26063Y   26106.23037716  .00227798  00000+0  11550-2 0  9999
2 68402  97.2834 247.8998 0001190  80.9760 279.1643 15.80895189  3552
